[{"OBJECT_NAME":"GAOFEN-12 03","OBJECT_ID":"2022-069A","EPOCH":"2026-03-09T22:26:41.020800","MEAN_MOTION":14.79856399,"ECCENTRICITY":0.00023242,"INCLINATION":97.8403,"RA_OF_ASC_NODE":319.2501,"ARG_OF_PERICENTER":91.8845,"MEAN_ANOMALY":268.2634,"EPHEMERIS_TYPE":0,"CLASSIFICATION_TYPE":"U","NORAD_CAT_ID":52912,"ELEMENT_SET_NO":999,"REV_AT_EPOCH":19993,"BSTAR":0.00029245071,"MEAN_MOTION_DOT":2.154e-5,"MEAN_MOTION_DDOT":0},{"OBJECT_NAME":"CZ-6A DEB","OBJECT_ID":"2024-140QU","EPOCH":"2026-03-09T14:10:38.390304","MEAN_MOTION":14.74729223,"ECCENTRICITY":0.0073268,"INCLINATION":88.9195,"RA_OF_ASC_NODE":275.5832,"ARG_OF_PERICENTER":187.6148,"MEAN_ANOMALY":172.3967,"EPHEMERIS_TYPE":0,"CLASSIFICATION_TYPE":"U","NORAD_CAT_ID":61150,"ELEMENT_SET_NO":999,"REV_AT_EPOCH":8264,"BSTAR":0.0023527,"MEAN_MOTION_DOT":0.0001646,"MEAN_MOTION_DDOT":0}]
